{
  "norad_id": 52477,
  "name": "STARLINK-3860",
  "history": [
    {
      "epoch": "2026-03-28T22:30:52.568352",
      "apogee_km": 540.617782275518,
      "perigee_km": 538.8910765747332,
      "latitude_deg": 24.701848660121684,
      "longitude_deg": -122.24159072013572,
      "semi_major_axis_km": 6917.891429425125,
      "eccentricity": 0.0001248,
      "inclination_deg": 53.2183,
      "raan_deg": 322.7129,
      "arg_perigee_deg": 89.6435,
      "mean_anomaly_deg": 270.4701,
      "mean_motion_rev_day": 15.08836388
    }
  ]
}