{"fetched_at":"2026-03-30T09:12:31Z","count":15922,"tles":[{"name":"STARLINK-3860","line1":"1 52477U 22049AC  26087.93810843  .00000309  00000+0  37478-4 0  9995","line2":"2 52477  53.2183 322.7129 0001248  89.6435 270.4701 15.08836388216533","category":"Starlink"}]}